{"fetched_at":"2026-03-30T06:02:59Z","count":15439,"tles":[{"name":"STARLINK-32494","line1":"1 62053U 24216X   26087.91062144  .00026478  00000+0  96821-3 0  9996","line2":"2 62053  42.9968 154.8331 0001127  55.5288 304.5670 15.27581963 76730","category":"Starlink"}]}