{
  "norad_id": 62053,
  "name": "STARLINK-32494",
  "history": [
    {
      "epoch": "2026-03-28T21:51:17.692416",
      "apogee_km": 483.8164731283441,
      "perigee_km": 482.26996310718005,
      "latitude_deg": 29.481256418617313,
      "longitude_deg": 112.71965823997743,
      "semi_major_axis_km": 6861.180218117762,
      "eccentricity": 0.0001127,
      "inclination_deg": 42.9968,
      "raan_deg": 154.8331,
      "arg_perigee_deg": 55.5288,
      "mean_anomaly_deg": 304.567,
      "mean_motion_rev_day": 15.27581963
    }
  ]
}